[{"OBJECT_NAME":"ES'HAIL 2","OBJECT_ID":"2018-090A","EPOCH":"2026-03-14T13:45:56.920608","MEAN_MOTION":1.00272024,"ECCENTRICITY":0.00010887,"INCLINATION":0.0143,"RA_OF_ASC_NODE":132.0856,"ARG_OF_PERICENTER":219.1213,"MEAN_ANOMALY":53.2689,"EPHEMERIS_TYPE":0,"CLASSIFICATION_TYPE":"U","NORAD_CAT_ID":43700,"ELEMENT_SET_NO":999,"REV_AT_EPOCH":2672,"BSTAR":0,"MEAN_MOTION_DOT":1.43e-6,"MEAN_MOTION_DDOT":0},{"OBJECT_NAME":"GEO-KOMPSAT-2A","OBJECT_ID":"2018-100A","EPOCH":"2026-03-14T09:07:12.923616","MEAN_MOTION":1.00271065,"ECCENTRICITY":0.0001616,"INCLINATION":0.0358,"RA_OF_ASC_NODE":31.7652,"ARG_OF_PERICENTER":23.6441,"MEAN_ANOMALY":21.6479,"EPHEMERIS_TYPE":0,"CLASSIFICATION_TYPE":"U","NORAD_CAT_ID":43823,"ELEMENT_SET_NO":999,"REV_AT_EPOCH":2667,"BSTAR":0,"MEAN_MOTION_DOT":-3.45e-6,"MEAN_MOTION_DDOT":0},{"OBJECT_NAME":"GSAT-11","OBJECT_ID":"2018-100B","EPOCH":"2026-03-14T15:58:49.818432","MEAN_MOTION":1.0027223,"ECCENTRICITY":0.00056124,"INCLINATION":0.0624,"RA_OF_ASC_NODE":270.8105,"ARG_OF_PERICENTER":148.5509,"MEAN_ANOMALY":66.6113,"EPHEMERIS_TYPE":0,"CLASSIFICATION_TYPE":"U","NORAD_CAT_ID":43824,"ELEMENT_SET_NO":999,"REV_AT_EPOCH":2653,"BSTAR":0,"MEAN_MOTION_DOT":-7.8e-7,"MEAN_MOTION_DDOT":0},{"OBJECT_NAME":"GSAT-7A","OBJECT_ID":"2018-105A","EPOCH":"2026-03-14T14:58:36.632640","MEAN_MOTION":1.00273719,"ECCENTRICITY":0.0001829,"INCLINATION":0.0763,"RA_OF_ASC_NODE":280.6042,"ARG_OF_PERICENTER":71.6707,"MEAN_ANOMALY":107.3606,"EPHEMERIS_TYPE":0,"CLASSIFICATION_TYPE":"U","NORAD_CAT_ID":43864,"ELEMENT_SET_NO":999,"REV_AT_EPOCH":2650,"BSTAR":0,"MEAN_MOTION_DOT":2.6e-7,"MEAN_MOTION_DDOT":0},{"OBJECT_NAME":"COSMOS 2533","OBJECT_ID":"2018-107A","EPOCH":"2026-03-13T03:44:49.643232","MEAN_MOTION":1.0027222,"ECCENTRICITY":6.627e-5,"INCLINATION":0.0158,"RA_OF_ASC_NODE":123.2166,"ARG_OF_PERICENTER":299.4061,"MEAN_ANOMALY":234.3457,"EPHEMERIS_TYPE":0,"CLASSIFICATION_TYPE":"U","NORAD_CAT_ID":43867,"ELEMENT_SET_NO":999,"REV_AT_EPOCH":2647,"BSTAR":0,"MEAN_MOTION_DOT":-3.8e-7,"MEAN_MOTION_DDOT":0},{"OBJECT_NAME":"TJS-3","OBJECT_ID":"2018-110A","EPOCH":"2026-03-14T19:35:53.532384","MEAN_MOTION":1.00347042,"ECCENTRICITY":0.0017403,"INCLINATION":2.2999,"RA_OF_ASC_NODE":81.6462,"ARG_OF_PERICENTER":346.0963,"MEAN_ANOMALY":128.4046,"EPHEMERIS_TYPE":0,"CLASSIFICATION_TYPE":"U","NORAD_CAT_ID":43874,"ELEMENT_SET_NO":999,"REV_AT_EPOCH":2647,"BSTAR":0,"MEAN_MOTION_DOT":-2.42e-6,"MEAN_MOTION_DDOT":0},{"OBJECT_NAME":"ZHONGXING-2D","OBJECT_ID":"2019-001A","EPOCH":"2026-03-14T14:15:39.071808","MEAN_MOTION":1.00267605,"ECCENTRICITY":5.822e-5,"INCLINATION":0.0383,"RA_OF_ASC_NODE":315.8124,"ARG_OF_PERICENTER":27.3645,"MEAN_ANOMALY":172.8861,"EPHEMERIS_TYPE":0,"CLASSIFICATION_TYPE":"U","NORAD_CAT_ID":43920,"ELEMENT_SET_NO":999,"REV_AT_EPOCH":5313,"BSTAR":0,"MEAN_MOTION_DOT":-3.38e-6,"MEAN_MOTION_DDOT":0},{"OBJECT_NAME":"HELLAS-SAT 4 & SGS-1","OBJECT_ID":"2019-007A","EPOCH":"2026-03-14T05:16:20.066016","MEAN_MOTION":1.00274741,"ECCENTRICITY":0.00032749,"INCLINATION":0.0661,"RA_OF_ASC_NODE":128.109,"ARG_OF_PERICENTER":14.8787,"MEAN_ANOMALY":146.9669,"EPHEMERIS_TYPE":0,"CLASSIFICATION_TYPE":"U","NORAD_CAT_ID":44034,"ELEMENT_SET_NO":999,"REV_AT_EPOCH":2641,"BSTAR":0,"MEAN_MOTION_DOT":1.52e-6,"MEAN_MOTION_DDOT":0},{"OBJECT_NAME":"GSAT-31","OBJECT_ID":"2019-007B","EPOCH":"2026-03-14T13:52:18.810336","MEAN_MOTION":1.00272129,"ECCENTRICITY":0.00040156,"INCLINATION":0.0255,"RA_OF_ASC_NODE":154.5905,"ARG_OF_PERICENTER":157.5732,"MEAN_ANOMALY":116.0109,"EPHEMERIS_TYPE":0,"CLASSIFICATION_TYPE":"U","NORAD_CAT_ID":44035,"ELEMENT_SET_NO":999,"REV_AT_EPOCH":2601,"BSTAR":0,"MEAN_MOTION_DOT":0,"MEAN_MOTION_DDOT":0},{"OBJECT_NAME":"NUSANTARA SATU","OBJECT_ID":"2019-009A","EPOCH":"2026-03-14T11:15:38.728800","MEAN_MOTION":1.00270979,"ECCENTRICITY":0.00020337,"INCLINATION":0.0283,"RA_OF_ASC_NODE":137.392,"ARG_OF_PERICENTER":310.4335,"MEAN_ANOMALY":39.1613,"EPHEMERIS_TYPE":0,"CLASSIFICATION_TYPE":"U","NORAD_CAT_ID":44048,"ELEMENT_SET_NO":999,"REV_AT_EPOCH":2582,"BSTAR":0,"MEAN_MOTION_DOT":-2.35e-6,"MEAN_MOTION_DDOT":0},{"OBJECT_NAME":"ZHONGXING-6C","OBJECT_ID":"2019-012A","EPOCH":"2026-03-14T14:15:54.048384","MEAN_MOTION":1.00271754,"ECCENTRICITY":0.00095059,"INCLINATION":0.0635,"RA_OF_ASC_NODE":67.6056,"ARG_OF_PERICENTER":325.5221,"MEAN_ANOMALY":123.4983,"EPHEMERIS_TYPE":0,"CLASSIFICATION_TYPE":"U","NORAD_CAT_ID":44067,"ELEMENT_SET_NO":999,"REV_AT_EPOCH":2579,"BSTAR":0,"MEAN_MOTION_DOT":-3.36e-6,"MEAN_MOTION_DDOT":0},{"OBJECT_NAME":"WGS 10 (USA 291)","OBJECT_ID":"2019-014A","EPOCH":"2026-03-13T03:42:04.906080","MEAN_MOTION":1.00270837,"ECCENTRICITY":4.537e-5,"INCLINATION":0.025,"RA_OF_ASC_NODE":144.3397,"ARG_OF_PERICENTER":233.7454,"MEAN_ANOMALY":268.5179,"EPHEMERIS_TYPE":0,"CLASSIFICATION_TYPE":"U","NORAD_CAT_ID":44071,"ELEMENT_SET_NO":999,"REV_AT_EPOCH":2565,"BSTAR":0,"MEAN_MOTION_DOT":0,"MEAN_MOTION_DDOT":0},{"OBJECT_NAME":"TIANLIAN 2-01","OBJECT_ID":"2019-017A","EPOCH":"2026-03-14T14:00:40.508352","MEAN_MOTION":1.00272295,"ECCENTRICITY":0.00026954,"INCLINATION":0.2942,"RA_OF_ASC_NODE":82.3692,"ARG_OF_PERICENTER":234.3182,"MEAN_ANOMALY":142.6899,"EPHEMERIS_TYPE":0,"CLASSIFICATION_TYPE":"U","NORAD_CAT_ID":44076,"ELEMENT_SET_NO":999,"REV_AT_EPOCH":2570,"BSTAR":0,"MEAN_MOTION_DOT":-1.07e-6,"MEAN_MOTION_DDOT":0},{"OBJECT_NAME":"ARABSAT-6A","OBJECT_ID":"2019-021A","EPOCH":"2026-03-14T13:47:19.289184","MEAN_MOTION":1.00267986,"ECCENTRICITY":0.00028805,"INCLINATION":0.0166,"RA_OF_ASC_NODE":14.225,"ARG_OF_PERICENTER":325.7769,"MEAN_ANOMALY":69.4988,"EPHEMERIS_TYPE":0,"CLASSIFICATION_TYPE":"U","NORAD_CAT_ID":44186,"ELEMENT_SET_NO":999,"REV_AT_EPOCH":2520,"BSTAR":0,"MEAN_MOTION_DOT":0,"MEAN_MOTION_DDOT":0},{"OBJECT_NAME":"BEIDOU-3 IGSO-1","OBJECT_ID":"2019-023A","EPOCH":"2026-03-14T07:21:30.561408","MEAN_MOTION":1.00268202,"ECCENTRICITY":0.00256024,"INCLINATION":58.5678,"RA_OF_ASC_NODE":38.6256,"ARG_OF_PERICENTER":236.057,"MEAN_ANOMALY":126.5518,"EPHEMERIS_TYPE":0,"CLASSIFICATION_TYPE":"U","NORAD_CAT_ID":44204,"ELEMENT_SET_NO":999,"REV_AT_EPOCH":626,"BSTAR":0,"MEAN_MOTION_DOT":-1.85e-6,"MEAN_MOTION_DDOT":0},{"OBJECT_NAME":"BEIDOU-2 G8","OBJECT_ID":"2019-027A","EPOCH":"2026-03-14T12:37:11.013888","MEAN_MOTION":1.00273801,"ECCENTRICITY":0.00114787,"INCLINATION":1.4168,"RA_OF_ASC_NODE":74.2591,"ARG_OF_PERICENTER":274.774,"MEAN_ANOMALY":156.9035,"EPHEMERIS_TYPE":0,"CLASSIFICATION_TYPE":"U","NORAD_CAT_ID":44231,"ELEMENT_SET_NO":999,"REV_AT_EPOCH":2513,"BSTAR":0,"MEAN_MOTION_DOT":-2.47e-6,"MEAN_MOTION_DDOT":0},{"OBJECT_NAME":"YAMAL 601","OBJECT_ID":"2019-031A","EPOCH":"2026-03-14T10:26:57.777216","MEAN_MOTION":1.00273549,"ECCENTRICITY":0.00024987,"INCLINATION":0.0039,"RA_OF_ASC_NODE":143.8417,"ARG_OF_PERICENTER":216.0934,"MEAN_ANOMALY":17.8544,"EPHEMERIS_TYPE":0,"CLASSIFICATION_TYPE":"U","NORAD_CAT_ID":44307,"ELEMENT_SET_NO":999,"REV_AT_EPOCH":2496,"BSTAR":0,"MEAN_MOTION_DOT":1.19e-6,"MEAN_MOTION_DDOT":0}]
